[{"OBJECT_NAME":"STARLINK-3601","OBJECT_ID":"2022-017AN","EPOCH":"2026-03-09T22:52:16.494816","MEAN_MOTION":15.08840434,"ECCENTRICITY":0.00014002,"INCLINATION":53.2206,"RA_OF_ASC_NODE":327.9428,"ARG_OF_PERICENTER":88.6084,"MEAN_ANOMALY":271.5069,"EPHEMERIS_TYPE":0,"CLASSIFICATION_TYPE":"U","NORAD_CAT_ID":51804,"ELEMENT_SET_NO":999,"REV_AT_EPOCH":22419,"BSTAR":3.2557071e-5,"MEAN_MOTION_DOT":2.3e-6,"MEAN_MOTION_DDOT":0},{"OBJECT_NAME":"LEMUR-2-TILLINFINITY","OBJECT_ID":"2025-061F","EPOCH":"2026-03-09T21:40:30.357696","MEAN_MOTION":15.139452,"ECCENTRICITY":0.00168906,"INCLINATION":97.5532,"RA_OF_ASC_NODE":45.5587,"ARG_OF_PERICENTER":226.702,"MEAN_ANOMALY":133.2804,"EPHEMERIS_TYPE":0,"CLASSIFICATION_TYPE":"U","NORAD_CAT_ID":63356,"ELEMENT_SET_NO":999,"REV_AT_EPOCH":5261,"BSTAR":0.00030453504,"MEAN_MOTION_DOT":5.472e-5,"MEAN_MOTION_DDOT":0}]
